start=new Date('2022-12-02T00:00:00.000Z').valueOf();
sats=[{"BSTAR":"0.00002271600000","TIME_SYSTEM":"UTC","REF_FRAME":"TEME","MEAN_MOTION_DOT":"0.00000057","DECAY_DATE":null,"EPHEMERIS_TYPE":"0","TLE_LINE2":"2 47807  53.0529 181.6788 0001888  51.9377 308.1782 15.06388454 97041","NORAD_CAT_ID":"47807","EPOCH":"2022-12-01T16:40:59.893824","SITE":"AFETR","PERIAPSIS":"545.941","ARG_OF_PERICENTER":"51.9377","OBJECT_NAME":"STARLINK-2388","FILE":"3678231","PERIOD":"95.593","REV_AT_EPOCH":"9704","CLASSIFICATION_TYPE":"U","INCLINATION":"53.0529","MEAN_ELEMENT_THEORY":"SGP4","SEMIMAJOR_AXIS":"6925.384","MEAN_MOTION_DDOT":"0.0000000000000","COUNTRY_CODE":"US","ELEMENT_SET_NO":"999","RCS_SIZE":"LARGE","TLE_LINE1":"1 47807U 21018W   22335.69513766  .00000057  00000-0  22716-4 0  9990","MEAN_MOTION":"15.06388454","MEAN_ANOMALY":"308.1782","OBJECT_TYPE":"PAYLOAD","OBJECT_ID":"2021-018W","CENTER_NAME":"EARTH","ECCENTRICITY":"0.00018880","RA_OF_ASC_NODE":"181.6788","APOAPSIS":"548.556","LAUNCH_DATE":"2021-03-11","GP_ID":"219304228"},{"SEMIMAJOR_AXIS":"6925.353","MEAN_ELEMENT_THEORY":"SGP4","TLE_LINE1":"1 47808U 21018X   22335.72415637 -.00000190  00000-0  61545-5 0  9996","RCS_SIZE":"LARGE","COUNTRY_CODE":"US","MEAN_MOTION_DDOT":"0.0000000000000","ELEMENT_SET_NO":"999","OBJECT_TYPE":"PAYLOAD","OBJECT_ID":"2021-018X","MEAN_ANOMALY":"310.5132","MEAN_MOTION":"15.06398548","GP_ID":"219304474","APOAPSIS":"548.576","RA_OF_ASC_NODE":"206.5521","LAUNCH_DATE":"2021-03-11","ECCENTRICITY":"0.00019610","CENTER_NAME":"EARTH","BSTAR":"0.00000615450000","EPHEMERIS_TYPE":"0","DECAY_DATE":null,"MEAN_MOTION_DOT":"-0.00000190","TIME_SYSTEM":"UTC","REF_FRAME":"TEME","PERIAPSIS":"545.860","ARG_OF_PERICENTER":"49.6028","SITE":"AFETR","NORAD_CAT_ID":"47808","EPOCH":"2022-12-01T17:22:47.110368","TLE_LINE2":"2 47808  53.0552 206.5521 0001961  49.6028 310.5132 15.06398548 96768","INCLINATION":"53.0552","FILE":"3678231","OBJECT_NAME":"STARLINK-2389","PERIOD":"95.592","REV_AT_EPOCH":"9676","CLASSIFICATION_TYPE":"U"},{"TLE_LINE2":"2 47809  53.0548 211.2212 0002116  46.2351 313.8813 15.06396579 96707","EPOCH":"2022-12-01T19:04:15.524832","NORAD_CAT_ID":"47809","SITE":"AFETR","PERIAPSIS":"545.759","ARG_OF_PERICENTER":"46.2351","CLASSIFICATION_TYPE":"U","PERIOD":"95.592","FILE":"3678231","OBJECT_NAME":"STARLINK-2390","REV_AT_EPOCH":"9670","INCLINATION":"53.0548","BSTAR":"0.00011847000000","REF_FRAME":"TEME","TIME_SYSTEM":"UTC","MEAN_MOTION_DOT":"0.00001483","DECAY_DATE":null,"EPHEMERIS_TYPE":"0","MEAN_MOTION":"15.06396579","MEAN_ANOMALY":"313.8813","OBJECT_ID":"2021-018Y","OBJECT_TYPE":"PAYLOAD","CENTER_NAME":"EARTH","ECCENTRICITY":"0.00021160","LAUNCH_DATE":"2021-03-11","RA_OF_ASC_NODE":"211.2212","APOAPSIS":"548.689","GP_ID":"219303729","MEAN_ELEMENT_THEORY":"SGP4","SEMIMAJOR_AXIS":"6925.359","ELEMENT_SET_NO":"999","MEAN_MOTION_DDOT":"0.0000000000000","COUNTRY_CODE":"US","RCS_SIZE":"LARGE","TLE_LINE1":"1 47809U 21018Y   22335.79462413  .00001483  00000-0  11847-3 0  9991"},{"BSTAR":"0.00012017000000","TIME_SYSTEM":"UTC","REF_FRAME":"TEME","MEAN_MOTION_DOT":"0.00001509","EPHEMERIS_TYPE":"0","DECAY_DATE":null,"TLE_LINE2":"2 47810  53.0546 221.4075 0001711  66.9972 293.1197 15.06403147 96553","NORAD_CAT_ID":"47810","EPOCH":"2022-12-01T18:05:54.373056","SITE":"AFETR","ARG_OF_PERICENTER":"66.9972","PERIAPSIS":"546.019","PERIOD":"95.592","FILE":"3678231","REV_AT_EPOCH":"9655","OBJECT_NAME":"STARLINK-2391","CLASSIFICATION_TYPE":"U","INCLINATION":"53.0546","MEAN_ELEMENT_THEORY":"SGP4","SEMIMAJOR_AXIS":"6925.339","MEAN_MOTION_DDOT":"0.0000000000000","COUNTRY_CODE":"US","ELEMENT_SET_NO":"999","RCS_SIZE":"LARGE","TLE_LINE1":"1 47810U 21018Z   22335.75410154  .00001509  00000-0  12017-3 0  9993","MEAN_ANOMALY":"293.1197","MEAN_MOTION":"15.06403147","OBJECT_TYPE":"PAYLOAD","OBJECT_ID":"2021-018Z","ECCENTRICITY":"0.00017110","CENTER_NAME":"EARTH","RA_OF_ASC_NODE":"221.4075","APOAPSIS":"548.389","LAUNCH_DATE":"2021-03-11","GP_ID":"219303977"},{"MEAN_ELEMENT_THEORY":"SGP4","SEMIMAJOR_AXIS":"6925.368","ELEMENT_SET_NO":"999","MEAN_MOTION_DDOT":"0.0000000000000","COUNTRY_CODE":"US","TLE_LINE1":"1 47811U 21018AA  22335.86008565  .00000152  00000-0  29096-4 0  9994","RCS_SIZE":"LARGE","MEAN_MOTION":"15.06393548","MEAN_ANOMALY":"279.6961","OBJECT_ID":"2021-018AA","OBJECT_TYPE":"PAYLOAD","LAUNCH_DATE":"2021-03-11","APOAPSIS":"548.199","RA_OF_ASC_NODE":"190.9410","CENTER_NAME":"EARTH","ECCENTRICITY":"0.00013940","GP_ID":"219304728","BSTAR":"0.00002909600000","REF_FRAME":"TEME","TIME_SYSTEM":"UTC","EPHEMERIS_TYPE":"0","DECAY_DATE":null,"MEAN_MOTION_DOT":"0.00000152","NORAD_CAT_ID":"47811","EPOCH":"2022-12-01T20:38:31.400160","TLE_LINE2":"2 47811  53.0550 190.9410 0001394  80.4185 279.6961 15.06393548 96995","PERIAPSIS":"546.268","ARG_OF_PERICENTER":"80.4185","SITE":"AFETR","CLASSIFICATION_TYPE":"U","REV_AT_EPOCH":"9699","FILE":"3678231","PERIOD":"95.593","OBJECT_NAME":"STARLINK-2392","INCLINATION":"53.0550"},{"MEAN_ANOMALY":"305.6225","MEAN_MOTION":"15.06406470","OBJECT_TYPE":"PAYLOAD","OBJECT_ID":"2021-018AB","ECCENTRICITY":"0.00021280","CENTER_NAME":"EARTH","RA_OF_ASC_NODE":"221.0521","APOAPSIS":"548.667","LAUNCH_DATE":"2021-03-11","GP_ID":"219304974","MEAN_ELEMENT_THEORY":"SGP4","SEMIMAJOR_AXIS":"6925.329","MEAN_MOTION_DDOT":"0.0000000000000","COUNTRY_CODE":"US","ELEMENT_SET_NO":"999","RCS_SIZE":"LARGE","TLE_LINE1":"1 47812U 21018AB  22335.83150430  .00001739  00000-0  13560-3 0  9991","TLE_LINE2":"2 47812  53.0540 221.0521 0002128  54.4962 305.6225 15.06406470 96503","EPOCH":"2022-12-01T19:57:21.971520","NORAD_CAT_ID":"47812","SITE":"AFETR","PERIAPSIS":"545.720","ARG_OF_PERICENTER":"54.4962","FILE":"3678231","PERIOD":"95.592","OBJECT_NAME":"STARLINK-2393","REV_AT_EPOCH":"9650","CLASSIFICATION_TYPE":"U","INCLINATION":"53.0540","BSTAR":"0.00013560000000","TIME_SYSTEM":"UTC","REF_FRAME":"TEME","MEAN_MOTION_DOT":"0.00001739","EPHEMERIS_TYPE":"0","DECAY_DATE":null},{"PERIAPSIS":"546.116","ARG_OF_PERICENTER":"76.3721","SITE":"AFETR","NORAD_CAT_ID":"47813","EPOCH":"2022-12-01T21:10:21.460512","TLE_LINE2":"2 47813  53.0536 190.8428 0001562  76.3721 283.7442 15.06405042 96999","INCLINATION":"53.0536","CLASSIFICATION_TYPE":"U","OBJECT_NAME":"STARLINK-2394","FILE":"3678231","PERIOD":"95.592","REV_AT_EPOCH":"9699","BSTAR":"0.00009059400000","DECAY_DATE":null,"EPHEMERIS_TYPE":"0","MEAN_MOTION_DOT":"0.00001068","REF_FRAME":"TEME","TIME_SYSTEM":"UTC","OBJECT_ID":"2021-018AC","OBJECT_TYPE":"PAYLOAD","MEAN_ANOMALY":"283.7442","MEAN_MOTION":"15.06405042","GP_ID":"219303230","LAUNCH_DATE":"2021-03-11","APOAPSIS":"548.280","RA_OF_ASC_NODE":"190.8428","CENTER_NAME":"EARTH","ECCENTRICITY":"0.00015620","SEMIMAJOR_AXIS":"6925.333","MEAN_ELEMENT_THEORY":"SGP4","TLE_LINE1":"1 47813U 21018AC  22335.88219283  .00001068  00000-0  90594-4 0  9997","RCS_SIZE":"LARGE","ELEMENT_SET_NO":"999","COUNTRY_CODE":"US","MEAN_MOTION_DDOT":"0.0000000000000"},{"MEAN_MOTION":"15.06393784","MEAN_ANOMALY":"310.1413","OBJECT_TYPE":"PAYLOAD","OBJECT_ID":"2021-018AD","RA_OF_ASC_NODE":"213.1055","APOAPSIS":"548.454","LAUNCH_DATE":"2021-03-11","CENTER_NAME":"EARTH","ECCENTRICITY":"0.00017640","GP_ID":"219265932","MEAN_ELEMENT_THEORY":"SGP4","SEMIMAJOR_AXIS":"6925.368","MEAN_MOTION_DDOT":"0.0000000000000","COUNTRY_CODE":"US","ELEMENT_SET_NO":"999","TLE_LINE1":"1 47814U 21018AD  22335.37537602  .00001087  00000-0  91861-4 0  9999","RCS_SIZE":"LARGE","NORAD_CAT_ID":"47814","EPOCH":"2022-12-01T09:00:32.488128","TLE_LINE2":"2 47814  53.0550 213.1055 0001764  49.9730 310.1413 15.06393784 96645","PERIAPSIS":"546.011","ARG_OF_PERICENTER":"49.9730","SITE":"AFETR","PERIOD":"95.593","FILE":"3677495","OBJECT_NAME":"STARLINK-2395","REV_AT_EPOCH":"9664","CLASSIFICATION_TYPE":"U","INCLINATION":"53.0550","BSTAR":"0.00009186100000","TIME_SYSTEM":"UTC","REF_FRAME":"TEME","EPHEMERIS_TYPE":"0","DECAY_DATE":null,"MEAN_MOTION_DOT":"0.00001087"},{"MEAN_MOTION_DOT":"0.00000164","DECAY_DATE":null,"EPHEMERIS_TYPE":"0","REF_FRAME":"TEME","TIME_SYSTEM":"UTC","BSTAR":"0.00002994500000","INCLINATION":"53.0553","CLASSIFICATION_TYPE":"U","FILE":"3678231","REV_AT_EPOCH":"9670","PERIOD":"95.592","OBJECT_NAME":"STARLINK-2396","SITE":"AFETR","ARG_OF_PERICENTER":"45.2760","PERIAPSIS":"545.658","TLE_LINE2":"2 47815  53.0553 206.4820 0002265  45.2760 314.8413 15.06395830 96705","NORAD_CAT_ID":"47815","EPOCH":"2022-12-01T17:44:01.700448","RCS_SIZE":"LARGE","TLE_LINE1":"1 47815U 21018AE  22335.73890857  .00000164  00000-0  29945-4 0  9993","ELEMENT_SET_NO":"999","COUNTRY_CODE":"US","MEAN_MOTION_DDOT":"0.0000000000000","SEMIMAJOR_AXIS":"6925.361","MEAN_ELEMENT_THEORY":"SGP4","GP_ID":"219304229","ECCENTRICITY":"0.00022650","CENTER_NAME":"EARTH","LAUNCH_DATE":"2021-03-11","RA_OF_ASC_NODE":"206.4820","APOAPSIS":"548.795","OBJECT_ID":"2021-018AE","OBJECT_TYPE":"PAYLOAD","MEAN_MOTION":"15.06395830","MEAN_ANOMALY":"314.8413"},{"LAUNCH_DATE":"2021-03-11","RA_OF_ASC_NODE":"214.4128","APOAPSIS":"548.386","CENTER_NAME":"EARTH","ECCENTRICITY":"0.00016750","GP_ID":"219275564","MEAN_MOTION":"15.06395854","MEAN_ANOMALY":"295.4034","OBJECT_ID":"2021-018AF","OBJECT_TYPE":"PAYLOAD","ELEMENT_SET_NO":"999","MEAN_MOTION_DDOT":"0.0000000000000","COUNTRY_CODE":"US","TLE_LINE1":"1 47816U 21018AF  22335.08418493 -.00000465  00000-0 -12345-4 0  9996","RCS_SIZE":"LARGE","MEAN_ELEMENT_THEORY":"SGP4","SEMIMAJOR_AXIS":"6925.361","CLASSIFICATION_TYPE":"U","PERIOD":"95.592","FILE":"3677745","OBJECT_NAME":"STARLINK-2399","REV_AT_EPOCH":"9620","INCLINATION":"53.0557","NORAD_CAT_ID":"47816","EPOCH":"2022-12-01T02:01:13.577952","TLE_LINE2":"2 47816  53.0557 214.4128 0001675  64.7128 295.4034 15.06395854 96202","PERIAPSIS":"546.066","ARG_OF_PERICENTER":"64.7128","SITE":"AFETR","REF_FRAME":"TEME","TIME_SYSTEM":"UTC","EPHEMERIS_TYPE":"0","DECAY_DATE":null,"MEAN_MOTION_DOT":"-0.00000465","BSTAR":"-0.00001234500000"}];
